[{"OBJECT_NAME":"STARLINK-36780","OBJECT_ID":"2026-034S","EPOCH":"2026-03-06T13:24:26.386272","MEAN_MOTION":15.80906965,"ECCENTRICITY":0.00016047,"INCLINATION":53.1602,"RA_OF_ASC_NODE":226.9048,"ARG_OF_PERICENTER":38.508,"MEAN_ANOMALY":321.6057,"EPHEMERIS_TYPE":0,"CLASSIFICATION_TYPE":"U","NORAD_CAT_ID":67866,"ELEMENT_SET_NO":999,"REV_AT_EPOCH":344,"BSTAR":0.00035978056,"MEAN_MOTION_DOT":0.00071009,"MEAN_MOTION_DDOT":0},{"OBJECT_NAME":"STARLINK-36761","OBJECT_ID":"2026-034T","EPOCH":"2026-03-06T14:54:25.119648","MEAN_MOTION":15.80957311,"ECCENTRICITY":9.179e-5,"INCLINATION":53.1601,"RA_OF_ASC_NODE":226.5834,"ARG_OF_PERICENTER":43.478,"MEAN_ANOMALY":316.6315,"EPHEMERIS_TYPE":0,"CLASSIFICATION_TYPE":"U","NORAD_CAT_ID":67867,"ELEMENT_SET_NO":999,"REV_AT_EPOCH":345,"BSTAR":0.0011016411,"MEAN_MOTION_DOT":0.00223311,"MEAN_MOTION_DDOT":0},{"OBJECT_NAME":"STARLINK-36762","OBJECT_ID":"2026-034U","EPOCH":"2026-03-06T13:22:18.359616","MEAN_MOTION":15.80888651,"ECCENTRICITY":0.00014525,"INCLINATION":53.1598,"RA_OF_ASC_NODE":226.8953,"ARG_OF_PERICENTER":46.8889,"MEAN_ANOMALY":313.2255,"EPHEMERIS_TYPE":0,"CLASSIFICATION_TYPE":"U","NORAD_CAT_ID":67868,"ELEMENT_SET_NO":999,"REV_AT_EPOCH":344,"BSTAR":0.0010658544,"MEAN_MOTION_DOT":0.00215144,"MEAN_MOTION_DDOT":0},{"OBJECT_NAME":"STARLINK-36779","OBJECT_ID":"2026-034V","EPOCH":"2026-03-06T14:52:15.474720","MEAN_MOTION":15.80960402,"ECCENTRICITY":8.946e-5,"INCLINATION":53.1599,"RA_OF_ASC_NODE":226.5733,"ARG_OF_PERICENTER":64.933,"MEAN_ANOMALY":295.1786,"EPHEMERIS_TYPE":0,"CLASSIFICATION_TYPE":"U","NORAD_CAT_ID":67869,"ELEMENT_SET_NO":999,"REV_AT_EPOCH":345,"BSTAR":0.0011046653,"MEAN_MOTION_DOT":0.00223975,"MEAN_MOTION_DDOT":0},{"OBJECT_NAME":"STARLINK-36770","OBJECT_ID":"2026-034W","EPOCH":"2026-03-06T14:50:05.733888","MEAN_MOTION":15.8096434,"ECCENTRICITY":4.536e-5,"INCLINATION":53.1598,"RA_OF_ASC_NODE":226.5629,"ARG_OF_PERICENTER":25.8582,"MEAN_ANOMALY":334.2464,"EPHEMERIS_TYPE":0,"CLASSIFICATION_TYPE":"U","NORAD_CAT_ID":67870,"ELEMENT_SET_NO":999,"REV_AT_EPOCH":345,"BSTAR":0.0011350171,"MEAN_MOTION_DOT":0.00230368,"MEAN_MOTION_DDOT":0},{"OBJECT_NAME":"STARLINK-36769","OBJECT_ID":"2026-034X","EPOCH":"2026-03-06T14:51:10.634112","MEAN_MOTION":15.80952512,"ECCENTRICITY":9.187e-5,"INCLINATION":53.16,"RA_OF_ASC_NODE":226.5684,"ARG_OF_PERICENTER":43.7522,"MEAN_ANOMALY":316.3573,"EPHEMERIS_TYPE":0,"CLASSIFICATION_TYPE":"U","NORAD_CAT_ID":67871,"ELEMENT_SET_NO":999,"REV_AT_EPOCH":345,"BSTAR":0.0010726107,"MEAN_MOTION_DOT":0.00217204,"MEAN_MOTION_DDOT":0},{"OBJECT_NAME":"STARLINK-36786","OBJECT_ID":"2026-034Y","EPOCH":"2026-03-06T14:49:00.910560","MEAN_MOTION":15.80950585,"ECCENTRICITY":9.982e-5,"INCLINATION":53.1598,"RA_OF_ASC_NODE":226.5581,"ARG_OF_PERICENTER":47.0957,"MEAN_ANOMALY":313.015,"EPHEMERIS_TYPE":0,"CLASSIFICATION_TYPE":"U","NORAD_CAT_ID":67872,"ELEMENT_SET_NO":999,"REV_AT_EPOCH":345,"BSTAR":0.00090062535,"MEAN_MOTION_DOT":0.00181487,"MEAN_MOTION_DDOT":0},{"OBJECT_NAME":"STARLINK-36783","OBJECT_ID":"2026-034Z","EPOCH":"2026-03-06T14:47:56.232384","MEAN_MOTION":15.80961231,"ECCENTRICITY":9.161e-5,"INCLINATION":53.1598,"RA_OF_ASC_NODE":226.5523,"ARG_OF_PERICENTER":44.2453,"MEAN_ANOMALY":315.8643,"EPHEMERIS_TYPE":0,"CLASSIFICATION_TYPE":"U","NORAD_CAT_ID":67873,"ELEMENT_SET_NO":999,"REV_AT_EPOCH":345,"BSTAR":0.0011294751,"MEAN_MOTION_DOT":0.00229169,"MEAN_MOTION_DDOT":0},{"OBJECT_NAME":"STARLINK-36730","OBJECT_ID":"2026-034AA","EPOCH":"2026-03-06T14:46:51.313152","MEAN_MOTION":15.80959028,"ECCENTRICITY":0.00010655,"INCLINATION":53.1599,"RA_OF_ASC_NODE":226.548,"ARG_OF_PERICENTER":38.2588,"MEAN_ANOMALY":321.851,"EPHEMERIS_TYPE":0,"CLASSIFICATION_TYPE":"U","NORAD_CAT_ID":67874,"ELEMENT_SET_NO":999,"REV_AT_EPOCH":345,"BSTAR":0.0010888521,"MEAN_MOTION_DOT":0.00220659,"MEAN_MOTION_DDOT":0},{"OBJECT_NAME":"STARLINK-36727","OBJECT_ID":"2026-034AB","EPOCH":"2026-03-06T14:45:46.558944","MEAN_MOTION":15.80936279,"ECCENTRICITY":0.00011346,"INCLINATION":53.1599,"RA_OF_ASC_NODE":226.5421,"ARG_OF_PERICENTER":43.3168,"MEAN_ANOMALY":316.7944,"EPHEMERIS_TYPE":0,"CLASSIFICATION_TYPE":"U","NORAD_CAT_ID":67875,"ELEMENT_SET_NO":999,"REV_AT_EPOCH":345,"BSTAR":0.00079748919,"MEAN_MOTION_DOT":0.00160117,"MEAN_MOTION_DDOT":0},{"OBJECT_NAME":"STARLINK-36743","OBJECT_ID":"2026-034AC","EPOCH":"2026-03-06T14:44:41.629344","MEAN_MOTION":15.80976647,"ECCENTRICITY":6.881e-5,"INCLINATION":53.1604,"RA_OF_ASC_NODE":226.5366,"ARG_OF_PERICENTER":36.7156,"MEAN_ANOMALY":323.3914,"EPHEMERIS_TYPE":0,"CLASSIFICATION_TYPE":"U","NORAD_CAT_ID":67876,"ELEMENT_SET_NO":999,"REV_AT_EPOCH":345,"BSTAR":0.001301867,"MEAN_MOTION_DOT":0.00265576,"MEAN_MOTION_DDOT":0},{"OBJECT_NAME":"STARLINK-36784","OBJECT_ID":"2026-034AD","EPOCH":"2026-03-06T14:43:36.972768","MEAN_MOTION":15.80963738,"ECCENTRICITY":7.578e-5,"INCLINATION":53.1602,"RA_OF_ASC_NODE":226.5316,"ARG_OF_PERICENTER":42.8637,"MEAN_ANOMALY":317.2445,"EPHEMERIS_TYPE":0,"CLASSIFICATION_TYPE":"U","NORAD_CAT_ID":67877,"ELEMENT_SET_NO":999,"REV_AT_EPOCH":345,"BSTAR":0.0012054269,"MEAN_MOTION_DOT":0.00245114,"MEAN_MOTION_DDOT":0},{"OBJECT_NAME":"STARLINK-36689","OBJECT_ID":"2026-034AE","EPOCH":"2026-03-06T14:42:32.247936","MEAN_MOTION":15.80960307,"ECCENTRICITY":0.00010427,"INCLINATION":53.1601,"RA_OF_ASC_NODE":226.5273,"ARG_OF_PERICENTER":70.8977,"MEAN_ANOMALY":289.2158,"EPHEMERIS_TYPE":0,"CLASSIFICATION_TYPE":"U","NORAD_CAT_ID":67878,"ELEMENT_SET_NO":999,"REV_AT_EPOCH":345,"BSTAR":0.0011543933,"MEAN_MOTION_DOT":0.00234373,"MEAN_MOTION_DDOT":0},{"OBJECT_NAME":"STARLINK-36818","OBJECT_ID":"2026-035A","EPOCH":"2026-03-06T14:00:01.000224","MEAN_MOTION":15.94524516,"ECCENTRICITY":0.0001142,"INCLINATION":97.2757,"RA_OF_ASC_NODE":357.6832,"ARG_OF_PERICENTER":99.3072,"MEAN_ANOMALY":302.8198,"EPHEMERIS_TYPE":0,"CLASSIFICATION_TYPE":"U","NORAD_CAT_ID":67879,"ELEMENT_SET_NO":999,"REV_AT_EPOCH":325,"BSTAR":-0.0027227409,"MEAN_MOTION_DOT":-0.01019395,"MEAN_MOTION_DDOT":0.00032009241},{"OBJECT_NAME":"STARLINK-36821","OBJECT_ID":"2026-035B","EPOCH":"2026-03-06T14:00:01.000224","MEAN_MOTION":15.94683377,"ECCENTRICITY":0.00012007,"INCLINATION":97.2751,"RA_OF_ASC_NODE":357.6864,"ARG_OF_PERICENTER":95.354,"MEAN_ANOMALY":314.269,"EPHEMERIS_TYPE":0,"CLASSIFICATION_TYPE":"U","NORAD_CAT_ID":67880,"ELEMENT_SET_NO":999,"REV_AT_EPOCH":325,"BSTAR":-0.0028660503,"MEAN_MOTION_DOT":-0.01081616,"MEAN_MOTION_DDOT":0.00035786678},{"OBJECT_NAME":"STARLINK-36808","OBJECT_ID":"2026-035C","EPOCH":"2026-03-06T14:00:01.000224","MEAN_MOTION":15.94602457,"ECCENTRICITY":0.00010919,"INCLINATION":97.2752,"RA_OF_ASC_NODE":357.6845,"ARG_OF_PERICENTER":87.38,"MEAN_ANOMALY":317.6995,"EPHEMERIS_TYPE":0,"CLASSIFICATION_TYPE":"U","NORAD_CAT_ID":67881,"ELEMENT_SET_NO":999,"REV_AT_EPOCH":325,"BSTAR":-0.0027491044,"MEAN_MOTION_DOT":-0.01033406,"MEAN_MOTION_DDOT":0.00032857404},{"OBJECT_NAME":"STARLINK-36817","OBJECT_ID":"2026-035D","EPOCH":"2026-03-06T14:00:01.000224","MEAN_MOTION":15.94814216,"ECCENTRICITY":0.00011359,"INCLINATION":97.274,"RA_OF_ASC_NODE":357.6896,"ARG_OF_PERICENTER":88.2223,"MEAN_ANOMALY":330.3326,"EPHEMERIS_TYPE":0,"CLASSIFICATION_TYPE":"U","NORAD_CAT_ID":67882,"ELEMENT_SET_NO":999,"REV_AT_EPOCH":325,"BSTAR":-0.0030460266,"MEAN_MOTION_DOT":-0.01156871,"MEAN_MOTION_DDOT":0.00040591471},{"OBJECT_NAME":"STARLINK-36856","OBJECT_ID":"2026-035E","EPOCH":"2026-03-06T14:00:01.000224","MEAN_MOTION":15.94757704,"ECCENTRICITY":0.00011709,"INCLINATION":97.2746,"RA_OF_ASC_NODE":357.6882,"ARG_OF_PERICENTER":94.3315,"MEAN_ANOMALY":320.0201,"EPHEMERIS_TYPE":0,"CLASSIFICATION_TYPE":"U","NORAD_CAT_ID":67883,"ELEMENT_SET_NO":999,"REV_AT_EPOCH":325,"BSTAR":-0.0030041687,"MEAN_MOTION_DOT":-0.01137729,"MEAN_MOTION_DDOT":0.00039333134},{"OBJECT_NAME":"STARLINK-36842","OBJECT_ID":"2026-035F","EPOCH":"2026-03-06T14:00:01.000224","MEAN_MOTION":15.9487274,"ECCENTRICITY":0.00011933,"INCLINATION":97.2741,"RA_OF_ASC_NODE":357.6914,"ARG_OF_PERICENTER":83.9457,"MEAN_ANOMALY":338.5621,"EPHEMERIS_TYPE":0,"CLASSIFICATION_TYPE":"U","NORAD_CAT_ID":67884,"ELEMENT_SET_NO":999,"REV_AT_EPOCH":325,"BSTAR":-0.0030577932,"MEAN_MOTION_DOT":-0.0116489,"MEAN_MOTION_DDOT":0.0004113915},{"OBJECT_NAME":"STARLINK-36826","OBJECT_ID":"2026-035G","EPOCH":"2026-03-06T14:00:01.000224","MEAN_MOTION":15.94936719,"ECCENTRICITY":0.0001199,"INCLINATION":97.2739,"RA_OF_ASC_NODE":357.6927,"ARG_OF_PERICENTER":94.8203,"MEAN_ANOMALY":330.9404,"EPHEMERIS_TYPE":0,"CLASSIFICATION_TYPE":"U","NORAD_CAT_ID":67885,"ELEMENT_SET_NO":999,"REV_AT_EPOCH":325,"BSTAR":-0.0030452473,"MEAN_MOTION_DOT":-0.01164067,"MEAN_MOTION_DDOT":0.00041112474},{"OBJECT_NAME":"STARLINK-36390","OBJECT_ID":"2026-035H","EPOCH":"2026-03-06T14:00:01.000224","MEAN_MOTION":15.94981264,"ECCENTRICITY":0.00011905,"INCLINATION":97.2734,"RA_OF_ASC_NODE":357.6946,"ARG_OF_PERICENTER":91.836,"MEAN_ANOMALY":338.6303,"EPHEMERIS_TYPE":0,"CLASSIFICATION_TYPE":"U","NORAD_CAT_ID":67886,"ELEMENT_SET_NO":999,"REV_AT_EPOCH":330,"BSTAR":-0.0030546635,"MEAN_MOTION_DOT":-0.01170376,"MEAN_MOTION_DDOT":0.00041545329},{"OBJECT_NAME":"STARLINK-36368","OBJECT_ID":"2026-035J","EPOCH":"2026-03-06T14:00:01.000224","MEAN_MOTION":15.95029004,"ECCENTRICITY":0.00011666,"INCLINATION":97.2732,"RA_OF_ASC_NODE":357.6964,"ARG_OF_PERICENTER":89.5685,"MEAN_ANOMALY":345.3898,"EPHEMERIS_TYPE":0,"CLASSIFICATION_TYPE":"U","NORAD_CAT_ID":67887,"ELEMENT_SET_NO":999,"REV_AT_EPOCH":325,"BSTAR":-0.0030669406,"MEAN_MOTION_DOT":-0.01177994,"MEAN_MOTION_DDOT":0.00042068383},{"OBJECT_NAME":"STARLINK-36801","OBJECT_ID":"2026-035K","EPOCH":"2026-03-06T14:00:01.000224","MEAN_MOTION":15.95082168,"ECCENTRICITY":0.00012151,"INCLINATION":97.2729,"RA_OF_ASC_NODE":357.6982,"ARG_OF_PERICENTER":91.9694,"MEAN_ANOMALY":347.3281,"EPHEMERIS_TYPE":0,"CLASSIFICATION_TYPE":"U","NORAD_CAT_ID":67888,"ELEMENT_SET_NO":999,"REV_AT_EPOCH":325,"BSTAR":-0.0030718927,"MEAN_MOTION_DOT":-0.01183198,"MEAN_MOTION_DDOT":0.00042436497}]
